COSMOS 2576             
1 59773U 24092A   26068.82603826  .00015211  00000+0  56283-3 0  9991
2 59773  97.4253 186.0053 0005946 159.7731 200.3745 15.27760963101271
STARLINK-33975          
1 63802U 25091AC  26068.80684693  .00025298  00000+0  92444-3 0  9993
2 63802  43.0059  51.5543 0004425 308.3925  51.6529 15.27618476 49031
